{
  "type": "FeatureCollection",
  "features": [
    {
      "type": "Feature",
      "properties": {
        "norad_id": 55973,
        "name": "TIANMU-1 03",
        "group": "weather",
        "lat": 82.33897605111899,
        "lon": 45.609487287655,
        "alt_km": 433.4562355497892,
        "timestamp": "2025-12-10T05:46:13.440635+00:00",
        "meta_object_name": "TIANMU-1 03",
        "meta_object_id": "2023-039A",
        "meta_epoch": "2025-12-09T18:27:52.644384",
        "meta_mean_motion": 15.40785853,
        "meta_eccentricity": 0.00045,
        "meta_inclination": 97.5112,
        "meta_ra_of_asc_node": 146.3383,
        "meta_arg_of_pericenter": 69.2402,
        "meta_mean_anomaly": 290.9326,
        "meta_ephemeris_type": 0,
        "meta_classification_type": "U",
        "meta_norad_cat_id": 55973,
        "meta_element_set_no": 999,
        "meta_rev_at_epoch": 15160,
        "meta_bstar": 0.0005293,
        "meta_mean_motion_dot": 0.00021625,
        "meta_mean_motion_ddot": 0,
        "tle_line1": "1 55973U 23039A   25343.76935931  .00021625  00000+0  52930-3 0  9993",
        "tle_line2": "2 55973  97.5112 146.3383 0004500  69.2402 290.9326 15.40785853151606"
      },
      "geometry": {
        "type": "Point",
        "coordinates": [
          45.609487287655,
          82.33897605111899
        ]
      }
    },
    {
      "type": "Feature",
      "properties": {
        "norad_id": 55974,
        "name": "TIANMU-1 04",
        "group": "weather",
        "lat": -22.364942108790608,
        "lon": -37.09481668152998,
        "alt_km": 450.9138051080208,
        "timestamp": "2025-12-10T05:46:13.440645+00:00",
        "meta_object_name": "TIANMU-1 04",
        "meta_object_id": "2023-039B",
        "meta_epoch": "2025-12-09T21:06:12.523968",
        "meta_mean_motion": 15.41125771,
        "meta_eccentricity": 0.0005183,
        "meta_inclination": 97.5044,
        "meta_ra_of_asc_node": 145.6435,
        "meta_arg_of_pericenter": 64.4878,
        "meta_mean_anomaly": 295.6904,
        "meta_ephemeris_type": 0,
        "meta_classification_type": "U",
        "meta_norad_cat_id": 55974,
        "meta_element_set_no": 999,
        "meta_rev_at_epoch": 15162,
        "meta_bstar": 0.00054722,
        "meta_mean_motion_dot": 0.00022618,
        "meta_mean_motion_ddot": 0,
        "tle_line1": "1 55974U 23039B   25343.87931162  .00022618  00000+0  54722-3 0  9992",
        "tle_line2": "2 55974  97.5044 145.6435 0005183  64.4878 295.6904 15.41125771151627"
      },
      "geometry": {
        "type": "Point",
        "coordinates": [
          -37.09481668152998,
          -22.364942108790608
        ]
      }
    },
    {
      "type": "Feature",
      "properties": {
        "norad_id": 55975,
        "name": "TIANMU-1 05",
        "group": "weather",
        "lat": -57.02726681894255,
        "lon": -45.22518959420892,
        "alt_km": 453.6457087669487,
        "timestamp": "2025-12-10T05:46:13.440655+00:00",
        "meta_object_name": "TIANMU-1 05",
        "meta_object_id": "2023-039C",
        "meta_epoch": "2025-12-09T19:23:23.400672",
        "meta_mean_motion": 15.40746227,
        "meta_eccentricity": 0.0004372,
        "meta_inclination": 97.5091,
        "meta_ra_of_asc_node": 146.0624,
        "meta_arg_of_pericenter": 85.7688,
        "meta_mean_anomaly": 274.4057,
        "meta_ephemeris_type": 0,
        "meta_classification_type": "U",
        "meta_norad_cat_id": 55975,
        "meta_element_set_no": 999,
        "meta_rev_at_epoch": 15159,
        "meta_bstar": 0.00054774,
        "meta_mean_motion_dot": 0.00022354,
        "meta_mean_motion_ddot": 0,
        "tle_line1": "1 55975U 23039C   25343.80790973  .00022354  00000+0  54774-3 0  9993",
        "tle_line2": "2 55975  97.5091 146.0624 0004372  85.7688 274.4057 15.40746227151593"
      },
      "geometry": {
        "type": "Point",
        "coordinates": [
          -45.22518959420892,
          -57.02726681894255
        ]
      }
    },
    {
      "type": "Feature",
      "properties": {
        "norad_id": 55976,
        "name": "TIANMU-1 06",
        "group": "weather",
        "lat": -9.971619262890064,
        "lon": -34.359386748006166,
        "alt_km": 447.9960918175602,
        "timestamp": "2025-12-10T05:46:13.440665+00:00",
        "meta_object_name": "TIANMU-1 06",
        "meta_object_id": "2023-039D",
        "meta_epoch": "2025-12-09T21:09:28.785888",
        "meta_mean_motion": 15.4117804,
        "meta_eccentricity": 0.0004711,
        "meta_inclination": 97.5101,
        "meta_ra_of_asc_node": 146.6008,
        "meta_arg_of_pericenter": 81.2484,
        "meta_mean_anomaly": 278.9296,
        "meta_ephemeris_type": 0,
        "meta_classification_type": "U",
        "meta_norad_cat_id": 55976,
        "meta_element_set_no": 999,
        "meta_rev_at_epoch": 15162,
        "meta_bstar": 0.00054222,
        "meta_mean_motion_dot": 0.00022447,
        "meta_mean_motion_ddot": 0,
        "tle_line1": "1 55976U 23039D   25343.88158317  .00022447  00000+0  54222-3 0  9993",
        "tle_line2": "2 55976  97.5101 146.6008 0004711  81.2484 278.9296 15.41178040151621"
      },
      "geometry": {
        "type": "Point",
        "coordinates": [
          -34.359386748006166,
          -9.971619262890064
        ]
      }
    },
    {
      "type": "Feature",
      "properties": {
        "norad_id": 56232,
        "name": "FENGYUN 3G",
        "group": "weather",
        "lat": 30.230775495874422,
        "lon": 31.046031470311842,
        "alt_km": 396.4646351475176,
        "timestamp": "2025-12-10T05:46:13.440678+00:00",
        "meta_object_name": "FENGYUN 3G",
        "meta_object_id": "2023-055A",
        "meta_epoch": "2025-12-09T19:54:46.304640",
        "meta_mean_motion": 15.53371996,
        "meta_eccentricity": 0.0009301,
        "meta_inclination": 49.9932,
        "meta_ra_of_asc_node": 242.4697,
        "meta_arg_of_pericenter": 134.6935,
        "meta_mean_anomaly": 225.4791,
        "meta_ephemeris_type": 0,
        "meta_classification_type": "U",
        "meta_norad_cat_id": 56232,
        "meta_element_set_no": 999,
        "meta_rev_at_epoch": 15057,
        "meta_bstar": 0.00064589,
        "meta_mean_motion_dot": 0.00041469,
        "meta_mean_motion_ddot": 0,
        "tle_line1": "1 56232U 23055A   25343.82970260  .00041469  00000+0  64589-3 0  9992",
        "tle_line2": "2 56232  49.9932 242.4697 0009301 134.6935 225.4791 15.53371996150571"
      },
      "geometry": {
        "type": "Point",
        "coordinates": [
          31.046031470311842,
          30.230775495874422
        ]
      }
    },
    {
      "type": "Feature",
      "properties": {
        "norad_id": 57166,
        "name": "METEOR-M2 3",
        "group": "weather",
        "lat": 41.20906556213746,
        "lon": 30.17335009664536,
        "alt_km": 805.8057235717224,
        "timestamp": "2025-12-10T05:46:13.440691+00:00",
        "meta_object_name": "METEOR-M2 3",
        "meta_object_id": "2023-091A",
        "meta_epoch": "2025-12-09T21:08:36.204576",
        "meta_mean_motion": 14.24025657,
        "meta_eccentricity": 0.0004075,
        "meta_inclination": 98.6382,
        "meta_ra_of_asc_node": 37.4702,
        "meta_arg_of_pericenter": 16.7802,
        "meta_mean_anomaly": 343.3511,
        "meta_ephemeris_type": 0,
        "meta_classification_type": "U",
        "meta_norad_cat_id": 57166,
        "meta_element_set_no": 999,
        "meta_rev_at_epoch": 12757,
        "meta_bstar": 4.4503e-05,
        "meta_mean_motion_dot": 5.9e-07,
        "meta_mean_motion_ddot": 0,
        "tle_line1": "1 57166U 23091A   25343.88097459  .00000059  00000+0  44503-4 0  9990",
        "tle_line2": "2 57166  98.6382  37.4702 0004075  16.7802 343.3511 14.24025657127574"
      },
      "geometry": {
        "type": "Point",
        "coordinates": [
          30.17335009664536,
          41.20906556213746
        ]
      }
    },
    {
      "type": "Feature",
      "properties": {
        "norad_id": 57399,
        "name": "TIANMU-1 07",
        "group": "weather",
        "lat": 14.297375999080483,
        "lon": 32.2761291011266,
        "alt_km": 481.66510784856837,
        "timestamp": "2025-12-10T05:46:13.440701+00:00",
        "meta_object_name": "TIANMU-1 07",
        "meta_object_id": "2023-101A",
        "meta_epoch": "2025-12-09T20:16:38.629056",
        "meta_mean_motion": 15.28005317,
        "meta_eccentricity": 0.0005641,
        "meta_inclination": 97.2877,
        "meta_ra_of_asc_node": 33.7583,
        "meta_arg_of_pericenter": 88.7609,
        "meta_mean_anomaly": 271.4277,
        "meta_ephemeris_type": 0,
        "meta_classification_type": "U",
        "meta_norad_cat_id": 57399,
        "meta_element_set_no": 999,
        "meta_rev_at_epoch": 13271,
        "meta_bstar": 0.00042294,
        "meta_mean_motion_dot": 0.00011493,
        "meta_mean_motion_ddot": 0,
        "tle_line1": "1 57399U 23101A   25343.84489154  .00011493  00000+0  42294-3 0  9991",
        "tle_line2": "2 57399  97.2877  33.7583 0005641  88.7609 271.4277 15.28005317132714"
      },
      "geometry": {
        "type": "Point",
        "coordinates": [
          32.2761291011266,
          14.297375999080483
        ]
      }
    }
  ]
}